[{"OBJECT_NAME":"STARLINK-6338","OBJECT_ID":"2023-099AN","EPOCH":"2026-03-09T11:25:05.216448","MEAN_MOTION":15.02534317,"ECCENTRICITY":0.00012194,"INCLINATION":43.0022,"RA_OF_ASC_NODE":237.1673,"ARG_OF_PERICENTER":265.5272,"MEAN_ANOMALY":94.5431,"EPHEMERIS_TYPE":0,"CLASSIFICATION_TYPE":"U","NORAD_CAT_ID":57364,"ELEMENT_SET_NO":999,"REV_AT_EPOCH":14623,"BSTAR":-1.2382029e-5,"MEAN_MOTION_DOT":-3.71e-6,"MEAN_MOTION_DDOT":0},{"OBJECT_NAME":"GSLV R\/B","OBJECT_ID":"2022-138AN","EPOCH":"2026-03-09T17:17:59.229888","MEAN_MOTION":14.96774296,"ECCENTRICITY":0.00230204,"INCLINATION":87.3876,"RA_OF_ASC_NODE":166.352,"ARG_OF_PERICENTER":146.6269,"MEAN_ANOMALY":213.6419,"EPHEMERIS_TYPE":0,"CLASSIFICATION_TYPE":"U","NORAD_CAT_ID":54149,"ELEMENT_SET_NO":999,"REV_AT_EPOCH":18393,"BSTAR":0.00032104808,"MEAN_MOTION_DOT":3.719e-5,"MEAN_MOTION_DDOT":0}]
